ONEWEB-0412             
1 50489U 21132W   23271.26013766  .00000063  00000+0  12750-3 0  9997
2 50489  87.9237 172.9386 0002237  89.9246 270.2142 13.18689042 90797
ONEWEB-0413             
1 50490U 21132X   23271.26435943  .00000008  00000+0 -12465-4 0  9998
2 50490  87.9298 172.9301 0002181  82.6489 277.4891 13.18686556 90731
ONEWEB-0414             
1 50491U 21132Y   23271.63004379  .00000094  00000+0  20588-3 0  9993
2 50491  87.9291 172.8476 0001849  87.9225 272.2119 13.18687465 90818
ONEWEB-0417             
1 50492U 21132Z   23271.25803347  .00000003  00000+0 -25139-4 0  9993
2 50492  87.9236 172.9528 0001485  74.6375 285.4921 13.18685463 90747
ONEWEB-0418             
1 50493U 21132AA  23271.27173821  .00000000  00000+0 -33910-4 0  9996
2 50493  87.9297 172.9178 0001248  80.9011 279.2262 13.18686277 90800
ONEWEB-0419             
1 50494U 21132AB  23271.28544867 -.00000573  00000+0 -14855-2 0  9991
2 50494  87.9296 172.9396 0001620  72.1106 288.0203 13.18691380 90729
ONEWEB-0420             
1 50495U 21132AC  23271.63111340  .00000076  00000+0  16092-3 0  9999
2 50495  87.9294 172.8795 0002062  68.0487 292.0864 13.18687419 90767
ONEWEB-0421             
1 50496U 21132AD  23271.24538280  .00000061  00000+0  12097-3 0  9998
2 50496  87.9237 172.9442 0002005  89.7710 270.3652 13.18688464 90755
